1998-067XU              
1 66908U 98067XU  26026.71917111  .00109964  00000+0  13859-2 0  9999
2 66908  51.6277 277.8973 0003045 125.4481 234.6796 15.58755445  8610
SILVERSAT               
1 66909U 98067XV  26026.70387857  .00123288  00000+0  14898-2 0  9996
2 66909  51.6290 277.7966 0003426 139.8593 220.2654 15.59807039  8615
1998-067XW              
1 66910U 98067XW  26026.70986037  .00101823  00000+0  12749-2 0  9997
2 66910  51.6274 277.8329 0001796 120.5750 239.5420 15.58968486  8610
1998-067XY              
1 66912U 98067XY  26026.75141075  .00076536  00000+0  10465-2 0  9994
2 66912  51.6293 278.1143 0002698 103.6724 256.4568 15.56746243  8609
